GLOBALSTAR M024         
1 25883U 99043A   24127.56350398 -.00000105  00000+0 -14387-2 0  9998
2 25883  52.0007 218.0996 0001976 159.1934 213.7358 11.10160175 69706
GLOBALSTAR M027         
1 25884U 99043B   24128.54725279 -.00000115  00000+0 -19324-2 0  9999
2 25884  52.0213 282.3706 0021678  58.1894 302.1007 11.04367816 96464
GLOBALSTAR M054         
1 25885U 99043C   24127.72793913 -.00000050  00000+0  54914-3 0  9991
2 25885  52.0103 119.7019 0004558 202.6329 327.6503 11.39203271 72728
GLOBALSTAR M053         
1 25886U 99043D   24127.91906089 -.00000080  00000+0 -31884-3 0  9998
2 25886  52.0009  43.7998 0003683 104.6065 334.2643 11.27654715 73610
GLOBALSTAR M058         
1 25907U 99049A   24128.18629789 -.00000064  00000+0  27312-3 0  9999
2 25907  51.9914 113.2817 0002253 220.7772 139.2894 11.93176866104285
GLOBALSTAR M050         
1 25908U 99049B   24127.92370373 -.00000140  00000+0 -58371-3 0  9998
2 25908  51.9961 152.0128 0009126 301.5888 125.7061 12.07433303 99115
GLOBALSTAR M033         
1 25909U 99049C   24127.91283267  .00000032  00000+0  11879-2 0  9992
2 25909  51.9928  51.9361 0011745 151.2075 208.9423 12.20273026486141
GLOBALSTAR M055         
1 25910U 99049D   24127.58753445 -.00000080  00000+0  12447-3 0  9994
2 25910  52.0018  83.3850 0007375   9.1028 350.9956 12.29400617118272
